{
  "type": "FeatureCollection",
  "features": [
    {
      "type": "Feature",
      "properties": {
        "norad_id": 55268,
        "name": "GPS BIII-6  (PRN 28)",
        "group": "gnss",
        "lat": -22.582709273645,
        "lon": 138.9516018143505,
        "alt_km": 20177.0938300106,
        "timestamp": "2025-12-12T22:42:12.789763+00:00",
        "meta_object_name": "GPS BIII-6  (PRN 28)",
        "meta_object_id": "2023-009A",
        "meta_epoch": "2025-12-10T05:50:57.225696",
        "meta_mean_motion": 2.00555847,
        "meta_eccentricity": 0.00036975,
        "meta_inclination": 55.1051,
        "meta_ra_of_asc_node": 155.9432,
        "meta_arg_of_pericenter": 357.7706,
        "meta_mean_anomaly": 183.2285,
        "meta_ephemeris_type": 0,
        "meta_classification_type": "U",
        "meta_norad_cat_id": 55268,
        "meta_element_set_no": 999,
        "meta_rev_at_epoch": 2145,
        "meta_bstar": 0,
        "meta_mean_motion_dot": 7.5e-07,
        "meta_mean_motion_ddot": 0,
        "tle_line1": "1 55268U 23009A   25344.24371789  .00000075  00000+0  00000+0 0  9999",
        "tle_line2": "2 55268  55.1051 155.9432 0003697 357.7706 183.2285  2.00555847 21451"
      },
      "geometry": {
        "type": "Point",
        "coordinates": [
          138.9516018143505,
          -22.582709273645
        ]
      }
    },
    {
      "type": "Feature",
      "properties": {
        "norad_id": 56564,
        "name": "BEIDOU-3 G4 (C62)",
        "group": "gnss",
        "lat": -0.8180966109917401,
        "lon": -137.47965981539895,
        "alt_km": 35778.03228384472,
        "timestamp": "2025-12-12T22:42:12.789781+00:00",
        "meta_object_name": "BEIDOU-3 G4 (C62)",
        "meta_object_id": "2023-066A",
        "meta_epoch": "2025-12-12T06:35:38.842368",
        "meta_mean_motion": 1.00271574,
        "meta_eccentricity": 0.00029092,
        "meta_inclination": 0.8155,
        "meta_ra_of_asc_node": 302.032,
        "meta_arg_of_pericenter": 232.7169,
        "meta_mean_anomaly": 165.4517,
        "meta_ephemeris_type": 0,
        "meta_classification_type": "U",
        "meta_norad_cat_id": 56564,
        "meta_element_set_no": 999,
        "meta_rev_at_epoch": 952,
        "meta_bstar": 0,
        "meta_mean_motion_dot": -1.01e-06,
        "meta_mean_motion_ddot": 0,
        "tle_line1": "1 56564U 23066A   25346.27475512 -.00000101  00000+0  00000+0 0  9997",
        "tle_line2": "2 56564   0.8155 302.0320 0002909 232.7169 165.4517  1.00271574  9529"
      },
      "geometry": {
        "type": "Point",
        "coordinates": [
          -137.47965981539895,
          -0.8180966109917401
        ]
      }
    },
    {
      "type": "Feature",
      "properties": {
        "norad_id": 56759,
        "name": "NVS-01 (IRNSS-1J)",
        "group": "gnss",
        "lat": -2.276124247817021,
        "lon": -168.20132675500568,
        "alt_km": 35774.27536140743,
        "timestamp": "2025-12-12T22:42:12.789799+00:00",
        "meta_object_name": "NVS-01 (IRNSS-1J)",
        "meta_object_id": "2023-076A",
        "meta_epoch": "2025-12-12T05:31:49.340352",
        "meta_mean_motion": 1.00277796,
        "meta_eccentricity": 0.00090213,
        "meta_inclination": 2.6191,
        "meta_ra_of_asc_node": 251.612,
        "meta_arg_of_pericenter": 14.2713,
        "meta_mean_anomaly": 27.6821,
        "meta_ephemeris_type": 0,
        "meta_classification_type": "U",
        "meta_norad_cat_id": 56759,
        "meta_element_set_no": 999,
        "meta_rev_at_epoch": 924,
        "meta_bstar": 0,
        "meta_mean_motion_dot": -3.25e-06,
        "meta_mean_motion_ddot": 0,
        "tle_line1": "1 56759U 23076A   25346.23043218 -.00000325  00000+0  00000+0 0  9992",
        "tle_line2": "2 56759   2.6191 251.6120 0009021  14.2713  27.6821  1.00277796  9240"
      },
      "geometry": {
        "type": "Point",
        "coordinates": [
          -168.20132675500568,
          -2.276124247817021
        ]
      }
    },
    {
      "type": "Feature",
      "properties": {
        "norad_id": 57517,
        "name": "COSMOS 2569 (703K)",
        "group": "gnss",
        "lat": -8.654614711710094,
        "lon": 74.880077921808,
        "alt_km": 19119.448127784242,
        "timestamp": "2025-12-12T22:42:12.789817+00:00",
        "meta_object_name": "COSMOS 2569 (703K)",
        "meta_object_id": "2023-114A",
        "meta_epoch": "2025-12-11T01:57:11.687328",
        "meta_mean_motion": 2.13103934,
        "meta_eccentricity": 0.0010485,
        "meta_inclination": 65.1933,
        "meta_ra_of_asc_node": 78.9695,
        "meta_arg_of_pericenter": 287.0346,
        "meta_mean_anomaly": 72.8683,
        "meta_ephemeris_type": 0,
        "meta_classification_type": "U",
        "meta_norad_cat_id": 57517,
        "meta_element_set_no": 999,
        "meta_rev_at_epoch": 1825,
        "meta_bstar": 0,
        "meta_mean_motion_dot": -2.7e-07,
        "meta_mean_motion_ddot": 0,
        "tle_line1": "1 57517U 23114A   25345.08138527 -.00000027  00000+0  00000+0 0  9997",
        "tle_line2": "2 57517  65.1933  78.9695 0010485 287.0346  72.8683  2.13103934 18252"
      },
      "geometry": {
        "type": "Point",
        "coordinates": [
          74.880077921808,
          -8.654614711710094
        ]
      }
    },
    {
      "type": "Feature",
      "properties": {
        "norad_id": 58654,
        "name": "BEIDOU-3 M28 (C50)",
        "group": "gnss",
        "lat": -15.952361770918618,
        "lon": 57.315389877330915,
        "alt_km": 21528.367787039584,
        "timestamp": "2025-12-12T22:42:12.789834+00:00",
        "meta_object_name": "BEIDOU-3 M28 (C50)",
        "meta_object_id": "2023-207A",
        "meta_epoch": "2025-12-11T21:37:33.991968",
        "meta_mean_motion": 1.86229651,
        "meta_eccentricity": 0.00023562,
        "meta_inclination": 55.5838,
        "meta_ra_of_asc_node": 68.6297,
        "meta_arg_of_pericenter": 269.3243,
        "meta_mean_anomaly": 90.6691,
        "meta_ephemeris_type": 0,
        "meta_classification_type": "U",
        "meta_norad_cat_id": 58654,
        "meta_element_set_no": 999,
        "meta_rev_at_epoch": 1335,
        "meta_bstar": 0,
        "meta_mean_motion_dot": -6.9e-07,
        "meta_mean_motion_ddot": 0,
        "tle_line1": "1 58654U 23207A   25345.90108787 -.00000069  00000+0  00000+0 0  9995",
        "tle_line2": "2 58654  55.5838  68.6297 0002356 269.3243  90.6691  1.86229651 13350"
      },
      "geometry": {
        "type": "Point",
        "coordinates": [
          57.315389877330915,
          -15.952361770918618
        ]
      }
    },
    {
      "type": "Feature",
      "properties": {
        "norad_id": 58655,
        "name": "BEIDOU-3 M26 (C48)",
        "group": "gnss",
        "lat": 47.772847415944796,
        "lon": -160.3744722627881,
        "alt_km": 21530.325697282082,
        "timestamp": "2025-12-12T22:42:12.789853+00:00",
        "meta_object_name": "BEIDOU-3 M26 (C48)",
        "meta_object_id": "2023-207B",
        "meta_epoch": "2025-12-11T03:52:58.066752",
        "meta_mean_motion": 1.86231203,
        "meta_eccentricity": 0.000378,
        "meta_inclination": 55.5852,
        "meta_ra_of_asc_node": 68.6411,
        "meta_arg_of_pericenter": 255.3563,
        "meta_mean_anomaly": 104.6232,
        "meta_ephemeris_type": 0,
        "meta_classification_type": "U",
        "meta_norad_cat_id": 58655,
        "meta_element_set_no": 999,
        "meta_rev_at_epoch": 1332,
        "meta_bstar": 0,
        "meta_mean_motion_dot": -6.3e-07,
        "meta_mean_motion_ddot": 0,
        "tle_line1": "1 58655U 23207B   25345.16178318 -.00000063  00000+0  00000+0 0  9995",
        "tle_line2": "2 58655  55.5852  68.6411 0003780 255.3563 104.6232  1.86231203 13327"
      },
      "geometry": {
        "type": "Point",
        "coordinates": [
          -160.3744722627881,
          47.772847415944796
        ]
      }
    },
    {
      "type": "Feature",
      "properties": {
        "norad_id": 59598,
        "name": "GSAT0225 (GALILEO 29)",
        "group": "gnss",
        "lat": 35.182403594469584,
        "lon": 135.84598349438198,
        "alt_km": 23221.82043804158,
        "timestamp": "2025-12-12T22:42:12.789871+00:00",
        "meta_object_name": "GSAT0225 (GALILEO 29)",
        "meta_object_id": "2024-079A",
        "meta_epoch": "2025-12-10T12:47:07.958400",
        "meta_mean_motion": 1.70474727,
        "meta_eccentricity": 0.00020453,
        "meta_inclination": 55.0006,
        "meta_ra_of_asc_node": 106.3566,
        "meta_arg_of_pericenter": 176.2356,
        "meta_mean_anomaly": 187.363,
        "meta_ephemeris_type": 0,
        "meta_classification_type": "U",
        "meta_norad_cat_id": 59598,
        "meta_element_set_no": 999,
        "meta_rev_at_epoch": 1010,
        "meta_bstar": 0,
        "meta_mean_motion_dot": 1e-07,
        "meta_mean_motion_ddot": 0,
        "tle_line1": "1 59598U 24079A   25344.53273100  .00000010  00000+0  00000+0 0  9996",
        "tle_line2": "2 59598  55.0006 106.3566 0002045 176.2356 187.3630  1.70474727 10101"
      },
      "geometry": {
        "type": "Point",
        "coordinates": [
          135.84598349438198,
          35.182403594469584
        ]
      }
    }
  ]
}